[{"OBJECT_NAME":"SL-16 R/B","OBJECT_ID":"1993-059B","EPOCH":"2026-03-12T05:30:35.049312","MEAN_MOTION":14.17231332,"ECCENTRICITY":0.00183953,"INCLINATION":70.9928,"RA_OF_ASC_NODE":5.77,"ARG_OF_PERICENTER":212.8726,"MEAN_ANOMALY":147.1255,"EPHEMERIS_TYPE":0,"CLASSIFICATION_TYPE":"U","NORAD_CAT_ID":22803,"ELEMENT_SET_NO":999,"REV_AT_EPOCH":67989,"BSTAR":-1.2771672e-5,"MEAN_MOTION_DOT":-7.4e-7,"MEAN_MOTION_DDOT":0},{"OBJECT_NAME":"ARIANE 40 R/B","OBJECT_ID":"1993-061H","EPOCH":"2026-03-12T03:25:24.104640","MEAN_MOTION":14.32862525,"ECCENTRICITY":0.00095732,"INCLINATION":98.491,"RA_OF_ASC_NODE":139.9818,"ARG_OF_PERICENTER":276.9829,"MEAN_ANOMALY":83.0267,"EPHEMERIS_TYPE":0,"CLASSIFICATION_TYPE":"U","NORAD_CAT_ID":22830,"ELEMENT_SET_NO":999,"REV_AT_EPOCH":69445,"BSTAR":0.00010704131,"MEAN_MOTION_DOT":2.49e-6,"MEAN_MOTION_DDOT":0},{"OBJECT_NAME":"COSMOS 2278","OBJECT_ID":"1994-023A","EPOCH":"2026-03-12T06:50:41.935776","MEAN_MOTION":14.1437946,"ECCENTRICITY":0.00082697,"INCLINATION":71.0552,"RA_OF_ASC_NODE":169.6681,"ARG_OF_PERICENTER":8.2431,"MEAN_ANOMALY":351.8826,"EPHEMERIS_TYPE":0,"CLASSIFICATION_TYPE":"U","NORAD_CAT_ID":23087,"ELEMENT_SET_NO":999,"REV_AT_EPOCH":64517,"BSTAR":2.5272324e-5,"MEAN_MOTION_DOT":1.0e-8,"MEAN_MOTION_DDOT":0},{"OBJECT_NAME":"SL-16 R/B","OBJECT_ID":"1994-023B","EPOCH":"2026-03-12T06:14:07.992672","MEAN_MOTION":14.15010961,"ECCENTRICITY":0.00056958,"INCLINATION":70.9985,"RA_OF_ASC_NODE":65.4888,"ARG_OF_PERICENTER":283.1119,"MEAN_ANOMALY":76.9368,"EPHEMERIS_TYPE":0,"CLASSIFICATION_TYPE":"U","NORAD_CAT_ID":23088,"ELEMENT_SET_NO":999,"REV_AT_EPOCH":64645,"BSTAR":-8.7433653e-5,"MEAN_MOTION_DOT":-2.17e-6,"MEAN_MOTION_DDOT":0},{"OBJECT_NAME":"SL-16 R/B","OBJECT_ID":"1994-074B","EPOCH":"2026-03-12T02:14:18.666240","MEAN_MOTION":14.79410841,"ECCENTRICITY":0.00059855,"INCLINATION":97.7107,"RA_OF_ASC_NODE":101.8136,"ARG_OF_PERICENTER":201.6293,"MEAN_ANOMALY":220.7848,"EPHEMERIS_TYPE":0,"CLASSIFICATION_TYPE":"U","NORAD_CAT_ID":23343,"ELEMENT_SET_NO":999,"REV_AT_EPOCH":68760,"BSTAR":7.6483607e-5,"MEAN_MOTION_DOT":5.21e-6,"MEAN_MOTION_DDOT":0},{"OBJECT_NAME":"SL-16 R/B","OBJECT_ID":"1994-077B","EPOCH":"2026-03-12T04:04:29.138016","MEAN_MOTION":14.15561637,"ECCENTRICITY":0.0002954,"INCLINATION":70.9853,"RA_OF_ASC_NODE":347.2721,"ARG_OF_PERICENTER":208.8129,"MEAN_ANOMALY":151.2831,"EPHEMERIS_TYPE":0,"CLASSIFICATION_TYPE":"U","NORAD_CAT_ID":23405,"ELEMENT_SET_NO":999,"REV_AT_EPOCH":61658,"BSTAR":7.8284365e-5,"MEAN_MOTION_DOT":1.05e-6,"MEAN_MOTION_DDOT":0},{"OBJECT_NAME":"ARIANE 40+ R/B","OBJECT_ID":"1995-021B","EPOCH":"2026-03-12T04:16:54.384672","MEAN_MOTION":14.39774598,"ECCENTRICITY":0.00077138,"INCLINATION":98.4492,"RA_OF_ASC_NODE":142.6271,"ARG_OF_PERICENTER":129.9656,"MEAN_ANOMALY":284.657,"EPHEMERIS_TYPE":0,"CLASSIFICATION_TYPE":"U","NORAD_CAT_ID":23561,"ELEMENT_SET_NO":999,"REV_AT_EPOCH":61960,"BSTAR":0.0001274237,"MEAN_MOTION_DOT":3.56e-6,"MEAN_MOTION_DDOT":0},{"OBJECT_NAME":"SL-16 R/B","OBJECT_ID":"1995-058B","EPOCH":"2026-03-12T07:38:15.402912","MEAN_MOTION":14.15497201,"ECCENTRICITY":0.00106802,"INCLINATION":71.0224,"RA_OF_ASC_NODE":174.737,"ARG_OF_PERICENTER":120.9947,"MEAN_ANOMALY":239.2227,"EPHEMERIS_TYPE":0,"CLASSIFICATION_TYPE":"U","NORAD_CAT_ID":23705,"ELEMENT_SET_NO":999,"REV_AT_EPOCH":56822,"BSTAR":0.00019281525,"MEAN_MOTION_DOT":3.3e-6,"MEAN_MOTION_DDOT":0},{"OBJECT_NAME":"SL-16 R/B","OBJECT_ID":"1996-051B","EPOCH":"2026-03-12T06:58:31.141344","MEAN_MOTION":14.12416401,"ECCENTRICITY":0.00148599,"INCLINATION":70.7603,"RA_OF_ASC_NODE":169.7339,"ARG_OF_PERICENTER":144.0731,"MEAN_ANOMALY":216.1391,"EPHEMERIS_TYPE":0,"CLASSIFICATION_TYPE":"U","NORAD_CAT_ID":24298,"ELEMENT_SET_NO":999,"REV_AT_EPOCH":52201,"BSTAR":7.1169929e-5,"MEAN_MOTION_DOT":8.2e-7,"MEAN_MOTION_DDOT":0},{"OBJECT_NAME":"ORBVIEW 2 (SEASTAR)","OBJECT_ID":"1997-037A","EPOCH":"2026-03-12T01:35:51.473472","MEAN_MOTION":14.35496758,"ECCENTRICITY":0.00030389,"INCLINATION":98.8571,"RA_OF_ASC_NODE":235.4414,"ARG_OF_PERICENTER":67.2308,"MEAN_ANOMALY":292.9197,"EPHEMERIS_TYPE":0,"CLASSIFICATION_TYPE":"U","NORAD_CAT_ID":24883,"ELEMENT_SET_NO":999,"REV_AT_EPOCH":50881,"BSTAR":0.0001309612,"MEAN_MOTION_DOT":3.3e-6,"MEAN_MOTION_DDOT":0},{"OBJECT_NAME":"SL-16 R/B","OBJECT_ID":"1998-043G","EPOCH":"2026-03-12T06:10:46.099200","MEAN_MOTION":14.26050505,"ECCENTRICITY":0.00100868,"INCLINATION":98.8256,"RA_OF_ASC_NODE":24.6391,"ARG_OF_PERICENTER":13.3324,"MEAN_ANOMALY":346.8121,"EPHEMERIS_TYPE":0,"CLASSIFICATION_TYPE":"U","NORAD_CAT_ID":25400,"ELEMENT_SET_NO":999,"REV_AT_EPOCH":43935,"BSTAR":5.5467757e-5,"MEAN_MOTION_DOT":8.7e-7,"MEAN_MOTION_DDOT":0},{"OBJECT_NAME":"SL-16 R/B","OBJECT_ID":"1998-045B","EPOCH":"2026-03-12T06:10:25.338144","MEAN_MOTION":14.16191353,"ECCENTRICITY":0.00069013,"INCLINATION":71.012,"RA_OF_ASC_NODE":176.1748,"ARG_OF_PERICENTER":4.3284,"MEAN_ANOMALY":355.7897,"EPHEMERIS_TYPE":0,"CLASSIFICATION_TYPE":"U","NORAD_CAT_ID":25407,"ELEMENT_SET_NO":999,"REV_AT_EPOCH":42746,"BSTAR":0.0001683313,"MEAN_MOTION_DOT":2.86e-6,"MEAN_MOTION_DDOT":0},{"OBJECT_NAME":"ISS (ZARYA)","OBJECT_ID":"1998-067A","EPOCH":"2026-03-12T03:49:12.417600","MEAN_MOTION":15.48595269,"ECCENTRICITY":0.00079841,"INCLINATION":51.6325,"RA_OF_ASC_NODE":60.1463,"ARG_OF_PERICENTER":183.4136,"MEAN_ANOMALY":176.6799,"EPHEMERIS_TYPE":0,"CLASSIFICATION_TYPE":"U","NORAD_CAT_ID":25544,"ELEMENT_SET_NO":999,"REV_AT_EPOCH":55671,"BSTAR":0.00017667487,"MEAN_MOTION_DOT":9.166e-5,"MEAN_MOTION_DDOT":0},{"OBJECT_NAME":"CZ-4B R/B","OBJECT_ID":"1999-025C","EPOCH":"2026-03-12T03:14:37.758336","MEAN_MOTION":14.18265816,"ECCENTRICITY":0.00366157,"INCLINATION":98.6622,"RA_OF_ASC_NODE":115.3588,"ARG_OF_PERICENTER":339.4833,"MEAN_ANOMALY":84.3041,"EPHEMERIS_TYPE":0,"CLASSIFICATION_TYPE":"U","NORAD_CAT_ID":25732,"ELEMENT_SET_NO":999,"REV_AT_EPOCH":38851,"BSTAR":4.1836864e-5,"MEAN_MOTION_DOT":4.3e-7,"MEAN_MOTION_DDOT":0},{"OBJECT_NAME":"OKEAN-O","OBJECT_ID":"1999-039A","EPOCH":"2026-03-12T03:40:12.801216","MEAN_MOTION":14.80339931,"ECCENTRICITY":0.00011699,"INCLINATION":97.9437,"RA_OF_ASC_NODE":131.0194,"ARG_OF_PERICENTER":70.3123,"MEAN_ANOMALY":289.8216,"EPHEMERIS_TYPE":0,"CLASSIFICATION_TYPE":"U","NORAD_CAT_ID":25860,"ELEMENT_SET_NO":999,"REV_AT_EPOCH":43475,"BSTAR":0.00011691245,"MEAN_MOTION_DOT":8.39e-6,"MEAN_MOTION_DDOT":0},{"OBJECT_NAME":"SL-16 R/B","OBJECT_ID":"1999-039B","EPOCH":"2026-03-12T03:07:52.521600","MEAN_MOTION":14.81735121,"ECCENTRICITY":0.00135771,"INCLINATION":97.9962,"RA_OF_ASC_NODE":130.2237,"ARG_OF_PERICENTER":247.2864,"MEAN_ANOMALY":112.6914,"EPHEMERIS_TYPE":0,"CLASSIFICATION_TYPE":"U","NORAD_CAT_ID":25861,"ELEMENT_SET_NO":999,"REV_AT_EPOCH":43722,"BSTAR":8.6309372e-5,"MEAN_MOTION_DOT":6.27e-6,"MEAN_MOTION_DDOT":0},{"OBJECT_NAME":"DELTA 2 R/B","OBJECT_ID":"1999-041E","EPOCH":"2026-03-11T22:04:04.979712","MEAN_MOTION":14.11844613,"ECCENTRICITY":0.0502434,"INCLINATION":51.7626,"RA_OF_ASC_NODE":292.3741,"ARG_OF_PERICENTER":355.0068,"MEAN_ANOMALY":4.5958,"EPHEMERIS_TYPE":0,"CLASSIFICATION_TYPE":"U","NORAD_CAT_ID":25876,"ELEMENT_SET_NO":999,"REV_AT_EPOCH":36334,"BSTAR":0.00024346,"MEAN_MOTION_DOT":1.275e-5,"MEAN_MOTION_DDOT":0}]
