SL-16 R/B               
1 22803U 93059B   26071.22957233 -.00000074  00000+0 -12772-4 0  9995
2 22803  70.9928   5.7700 0018395 212.8726 147.1255 14.17231332679896
ARIANE 40 R/B           
1 22830U 93061H   26071.14264010  .00000249  00000+0  10704-3 0  9997
2 22830  98.4910 139.9818 0009573 276.9829  83.0267 14.32862525694456
COSMOS 2278             
1 23087U 94023A   26071.28520759  .00000001  00000+0  25272-4 0  9994
2 23087  71.0552 169.6681 0008269   8.2431 351.8826 14.14379460645177
SL-16 R/B               
1 23088U 94023B   26071.25981473 -.00000217  00000+0 -87434-4 0  9995
2 23088  70.9985  65.4888 0005695 283.1119  76.9368 14.15010961646452
SL-16 R/B               
1 23343U 94074B   26071.09327160  .00000521  00000+0  76484-4 0  9993
2 23343  97.7107 101.8136 0005985 201.6293 220.7848 14.79410841687605
SL-16 R/B               
1 23405U 94077B   26071.16978169  .00000105  00000+0  78284-4 0  9992
2 23405  70.9853 347.2721 0002954 208.8129 151.2831 14.15561637616580
ARIANE 40+ R/B          
1 23561U 95021B   26071.17840723  .00000356  00000+0  12742-3 0  9994
2 23561  98.4492 142.6271 0007713 129.9656 284.6570 14.39774598619605
SL-16 R/B               
1 23705U 95058B   26071.31823383  .00000330  00000+0  19282-3 0  9991
2 23705  71.0224 174.7370 0010680 120.9947 239.2227 14.15497201568225
SL-16 R/B               
1 24298U 96051B   26071.29063821  .00000082  00000+0  71170-4 0  9992
2 24298  70.7603 169.7339 0014859 144.0731 216.1391 14.12416401522012
ORBVIEW 2 (SEASTAR)     
1 24883U 97037A   26071.06656798  .00000330  00000+0  13096-3 0  9991
2 24883  98.8571 235.4414 0003038  67.2308 292.9197 14.35496758508811
SL-16 R/B               
1 25400U 98043G   26071.25747800  .00000087  00000+0  55468-4 0  9990
2 25400  98.8256  24.6391 0010086  13.3324 346.8121 14.26050505439354
SL-16 R/B               
1 25407U 98045B   26071.25723771  .00000286  00000+0  16833-3 0  9993
2 25407  71.0120 176.1748 0006901   4.3284 355.7897 14.16191353427463
ISS (ZARYA)             
1 25544U 98067A   26071.15917150  .00009166  00000+0  17667-3 0  9996
2 25544  51.6325  60.1463 0007984 183.4136 176.6799 15.48595269556711
CZ-4B R/B               
1 25732U 99025C   26071.13515924  .00000043  00000+0  41837-4 0  9993
2 25732  98.6622 115.3588 0036615 339.4833  84.3041 14.18265816388516
OKEAN-O                 
1 25860U 99039A   26071.15292594  .00000839  00000+0  11691-3 0  9994
2 25860  97.9437 131.0194 0001169  70.3123 289.8216 14.80339931434754
SL-16 R/B               
1 25861U 99039B   26071.13046900  .00000627  00000+0  86309-4 0  9995
2 25861  97.9962 130.2237 0013577 247.2864 112.6914 14.81735121437225
DELTA 2 R/B             
1 25876U 99041E   26070.91950208  .00001275  00000+0  24346-3 0  9996
2 25876  51.7626 292.3741 0502434 355.0068   4.5958 14.11844613363343
